GLOBALSTAR M023 [+]     
1 25621U 99004A   24043.50703459 -.00000005  00000+0  55061-3 0  9999
2 25621  52.0103 107.5040 0010815 121.5007 345.0636 12.62447882153759
GLOBALSTAR M040 [-]     
1 25622U 99004B   24043.36592375 -.00000053  00000+0  28450-3 0  9992
2 25622  51.9913 111.3695 0000963  77.7306   2.2854 12.61966054153281
GLOBALSTAR M036 [-]     
1 25623U 99004C   24043.54496397 -.00000045  00000+0  54257-3 0  9995
2 25623  51.9965  93.5004 0011791 189.7268 322.6088 11.86560231120731
GLOBALSTAR M038 [-]     
1 25624U 99004D   24043.39745748 -.00000080  00000+0  12793-3 0  9994
2 25624  51.9984  44.9457 0002027 111.7741  36.1155 12.32492896141859
GLOBALSTAR M022 [-]     
1 25649U 99012A   24043.57022785 -.00000098  00000+0 -13067-3 0  9994
2 25649  52.0020 184.5945 0001629 272.0569 168.3420 12.02477716117350
GLOBALSTAR M041 [-]     
1 25650U 99012B   24043.40858645 -.00000103  00000+0 -22580-3 0  9997
2 25650  52.0031  51.5226 0002350  68.4016 291.7071 11.96656676119525
GLOBALSTAR M046 [-]     
1 25651U 99012C   24043.59218172 -.00000118  00000+0 -31765-3 0  9994
2 25651  52.0040 152.5760 0001783  18.4849  87.7806 12.09383179124300
GLOBALSTAR M037 [+]     
1 25652U 99012D   24043.85999494 -.00000078  00000+0  14590-3 0  9998
2 25652  51.9978 237.2373 0002097 149.7843 314.8824 12.62396014149392
